{
  "norad_id": 60931,
  "name": "STARLINK-11204 [DTC]",
  "history": [
    {
      "epoch": "2026-03-28T20:22:49.567584",
      "apogee_km": 360.3334507877853,
      "perigee_km": 359.15701654978693,
      "latitude_deg": 8.10678540467486,
      "longitude_deg": -5.378258239943534,
      "semi_major_axis_km": 6737.882233668786,
      "eccentricity": 8.73e-05,
      "inclination_deg": 53.1603,
      "raan_deg": 246.6477,
      "arg_perigee_deg": 118.2263,
      "mean_anomaly_deg": 241.8843,
      "mean_motion_rev_day": 15.69703541
    }
  ]
}